start=new Date('2021-11-28T00:00:00.000Z').valueOf();
sats=[{"SEMIMAJOR_AXIS":"6925.336","CLASSIFICATION_TYPE":"U","MEAN_ANOMALY":"297.8390","MEAN_MOTION":"15.06404054","DECAY_DATE":null,"COUNTRY_CODE":"US","FILE":"3225405","RA_OF_ASC_NODE":"349.2009","NORAD_CAT_ID":"48136","TIME_SYSTEM":"UTC","OBJECT_NAME":"STARLINK-2479","SITE":"AFETR","OBJECT_TYPE":"PAYLOAD","BSTAR":"0.00014473000000","ELEMENT_SET_NO":"999","ECCENTRICITY":"0.00015500","GP_ID":"190593713","LAUNCH_DATE":"2021-04-07","MEAN_MOTION_DDOT":"0.0000000000000","CENTER_NAME":"EARTH","PERIAPSIS":"546.128","REF_FRAME":"TEME","APOAPSIS":"548.275","EPHEMERIS_TYPE":"0","TLE_LINE2":"2 48136  53.0564 349.2009 0001550  62.2756 297.8390 15.06404054 36807","OBJECT_ID":"2021-027AW","INCLINATION":"53.0564","RCS_SIZE":"LARGE","TLE_LINE1":"1 48136U 21027AW  21331.46445604  .00001875  00000-0  14473-3 0  9990","MEAN_ELEMENT_THEORY":"SGP4","REV_AT_EPOCH":"3680","MEAN_MOTION_DOT":"0.00001875","PERIOD":"95.592","ARG_OF_PERICENTER":"62.2756","EPOCH":"2021-11-27T11:08:49.001856"},{"OBJECT_TYPE":"PAYLOAD","BSTAR":"0.00004276600000","SITE":"AFETR","TIME_SYSTEM":"UTC","OBJECT_NAME":"STARLINK-2480","GP_ID":"190623755","LAUNCH_DATE":"2021-04-07","MEAN_MOTION_DDOT":"0.0000000000000","ECCENTRICITY":"0.00018940","ELEMENT_SET_NO":"999","COUNTRY_CODE":"US","DECAY_DATE":null,"MEAN_ANOMALY":"303.4536","MEAN_MOTION":"15.06400612","CLASSIFICATION_TYPE":"U","SEMIMAJOR_AXIS":"6925.347","RA_OF_ASC_NODE":"328.1925","FILE":"3225675","NORAD_CAT_ID":"48137","MEAN_MOTION_DOT":"0.00000355","REV_AT_EPOCH":"3711","TLE_LINE1":"1 48137U 21027AX  21331.69019648  .00000355  00000-0  42766-4 0  9990","MEAN_ELEMENT_THEORY":"SGP4","RCS_SIZE":"LARGE","PERIOD":"95.592","ARG_OF_PERICENTER":"56.6635","EPOCH":"2021-11-27T16:33:52.975872","EPHEMERIS_TYPE":"0","TLE_LINE2":"2 48137  53.0507 328.1925 0001894  56.6635 303.4536 15.06400612 37119","APOAPSIS":"548.523","REF_FRAME":"TEME","CENTER_NAME":"EARTH","PERIAPSIS":"545.900","INCLINATION":"53.0507","OBJECT_ID":"2021-027AX"},{"REF_FRAME":"TEME","APOAPSIS":"548.842","CENTER_NAME":"EARTH","PERIAPSIS":"545.623","EPHEMERIS_TYPE":"0","TLE_LINE2":"2 48138  53.0571 347.7909 0002324  58.8422 301.2794 15.06393812 36852","OBJECT_ID":"2021-027AY","INCLINATION":"53.0571","TLE_LINE1":"1 48138U 21027AY  21331.78144137 -.00001602  00000-0 -88672-4 0  9997","MEAN_ELEMENT_THEORY":"SGP4","RCS_SIZE":"LARGE","MEAN_MOTION_DOT":"-0.00001602","REV_AT_EPOCH":"3685","PERIOD":"95.593","ARG_OF_PERICENTER":"58.8422","EPOCH":"2021-11-27T18:45:16.534368","MEAN_ANOMALY":"301.2794","MEAN_MOTION":"15.06393812","CLASSIFICATION_TYPE":"U","SEMIMAJOR_AXIS":"6925.368","COUNTRY_CODE":"US","DECAY_DATE":null,"NORAD_CAT_ID":"48138","FILE":"3225675","RA_OF_ASC_NODE":"347.7909","SITE":"AFETR","TIME_SYSTEM":"UTC","OBJECT_NAME":"STARLINK-2481","OBJECT_TYPE":"PAYLOAD","BSTAR":"-0.00008867200000","ECCENTRICITY":"0.00023240","ELEMENT_SET_NO":"999","LAUNCH_DATE":"2021-04-07","GP_ID":"190622511","MEAN_MOTION_DDOT":"0.0000000000000"},{"SEMIMAJOR_AXIS":"6925.363","CLASSIFICATION_TYPE":"U","MEAN_ANOMALY":"300.9180","MEAN_MOTION":"15.06395242","DECAY_DATE":null,"COUNTRY_CODE":"US","NORAD_CAT_ID":"48139","FILE":"3225675","RA_OF_ASC_NODE":"328.1165","OBJECT_NAME":"STARLINK-2482","TIME_SYSTEM":"UTC","SITE":"AFETR","OBJECT_TYPE":"PAYLOAD","BSTAR":"0.00005908500000","ELEMENT_SET_NO":"999","ECCENTRICITY":"0.00017650","LAUNCH_DATE":"2021-04-07","GP_ID":"190622761","MEAN_MOTION_DDOT":"0.0000000000000","CENTER_NAME":"EARTH","PERIAPSIS":"546.006","REF_FRAME":"TEME","APOAPSIS":"548.450","EPHEMERIS_TYPE":"0","TLE_LINE2":"2 48139  53.0560 328.1165 0001765  59.1983 300.9180 15.06395242 37127","OBJECT_ID":"2021-027AZ","INCLINATION":"53.0560","RCS_SIZE":"LARGE","TLE_LINE1":"1 48139U 21027AZ  21331.70589315  .00000598  00000-0  59085-4 0  9998","MEAN_ELEMENT_THEORY":"SGP4","REV_AT_EPOCH":"3712","MEAN_MOTION_DOT":"0.00000598","PERIOD":"95.592","ARG_OF_PERICENTER":"59.1983","EPOCH":"2021-11-27T16:56:29.168160"},{"OBJECT_ID":"2021-027BA","INCLINATION":"53.0562","PERIAPSIS":"545.978","CENTER_NAME":"EARTH","APOAPSIS":"548.450","REF_FRAME":"TEME","TLE_LINE2":"2 48140  53.0562 347.9653 0001785  64.4347 295.6826 15.06399905 36842","EPHEMERIS_TYPE":"0","EPOCH":"2021-11-27T17:45:32.622624","ARG_OF_PERICENTER":"64.4347","PERIOD":"95.592","RCS_SIZE":"LARGE","MEAN_ELEMENT_THEORY":"SGP4","TLE_LINE1":"1 48140U 21027BA  21331.73996091  .00000233  00000-0  34581-4 0  9996","REV_AT_EPOCH":"3684","MEAN_MOTION_DOT":"0.00000233","NORAD_CAT_ID":"48140","FILE":"3225675","RA_OF_ASC_NODE":"347.9653","SEMIMAJOR_AXIS":"6925.349","CLASSIFICATION_TYPE":"U","MEAN_MOTION":"15.06399905","MEAN_ANOMALY":"295.6826","DECAY_DATE":null,"COUNTRY_CODE":"US","ELEMENT_SET_NO":"999","ECCENTRICITY":"0.00017850","MEAN_MOTION_DDOT":"0.0000000000000","GP_ID":"190623497","LAUNCH_DATE":"2021-04-07","TIME_SYSTEM":"UTC","OBJECT_NAME":"STARLINK-2483","SITE":"AFETR","BSTAR":"0.00003458100000","OBJECT_TYPE":"PAYLOAD"},{"ECCENTRICITY":"0.00016310","ELEMENT_SET_NO":"999","GP_ID":"190623256","LAUNCH_DATE":"2021-04-07","MEAN_MOTION_DDOT":"0.0000000000000","SITE":"AFETR","TIME_SYSTEM":"UTC","OBJECT_NAME":"STARLINK-2484","OBJECT_TYPE":"PAYLOAD","BSTAR":"0.00004491500000","FILE":"3225675","RA_OF_ASC_NODE":"347.8782","NORAD_CAT_ID":"48141","MEAN_ANOMALY":"299.6914","MEAN_MOTION":"15.06390173","SEMIMAJOR_AXIS":"6925.379","CLASSIFICATION_TYPE":"U","COUNTRY_CODE":"US","DECAY_DATE":null,"ARG_OF_PERICENTER":"60.4237","PERIOD":"95.593","EPOCH":"2021-11-27T18:18:45.220032","TLE_LINE1":"1 48141U 21027BB  21331.76302338  .00000387  00000-0  44915-4 0  9997","MEAN_ELEMENT_THEORY":"SGP4","RCS_SIZE":"LARGE","MEAN_MOTION_DOT":"0.00000387","REV_AT_EPOCH":"3686","OBJECT_ID":"2021-027BB","INCLINATION":"53.0560","REF_FRAME":"TEME","APOAPSIS":"548.373","CENTER_NAME":"EARTH","PERIAPSIS":"546.114","EPHEMERIS_TYPE":"0","TLE_LINE2":"2 48141  53.0560 347.8782 0001631  60.4237 299.6914 15.06390173 36869"},{"NORAD_CAT_ID":"48142","FILE":"3225675","RA_OF_ASC_NODE":"327.8512","COUNTRY_CODE":"US","DECAY_DATE":null,"MEAN_MOTION":"15.06400340","MEAN_ANOMALY":"305.3134","CLASSIFICATION_TYPE":"U","SEMIMAJOR_AXIS":"6925.348","MEAN_MOTION_DDOT":"0.0000000000000","GP_ID":"190622012","LAUNCH_DATE":"2021-04-07","ECCENTRICITY":"0.00016930","ELEMENT_SET_NO":"999","BSTAR":"0.00002164200000","OBJECT_TYPE":"PAYLOAD","SITE":"AFETR","TIME_SYSTEM":"UTC","OBJECT_NAME":"STARLINK-2485","INCLINATION":"53.0554","OBJECT_ID":"2021-027BC","TLE_LINE2":"2 48142  53.0554 327.8512 0001693  54.8014 305.3134 15.06400340 37138","EPHEMERIS_TYPE":"0","APOAPSIS":"548.385","REF_FRAME":"TEME","PERIAPSIS":"546.040","CENTER_NAME":"EARTH","EPOCH":"2021-11-27T18:26:42.406368","ARG_OF_PERICENTER":"54.8014","PERIOD":"95.592","MEAN_MOTION_DOT":"0.00000041","REV_AT_EPOCH":"3713","MEAN_ELEMENT_THEORY":"SGP4","TLE_LINE1":"1 48142U 21027BC  21331.76854637  .00000041  00000-0  21642-4 0  9991","RCS_SIZE":"LARGE"},{"COUNTRY_CODE":"US","DECAY_DATE":null,"MEAN_ANOMALY":"290.5248","MEAN_MOTION":"15.03958193","CLASSIFICATION_TYPE":"U","SEMIMAJOR_AXIS":"6932.842","NORAD_CAT_ID":"48143","FILE":"3225675","RA_OF_ASC_NODE":"281.6216","OBJECT_TYPE":"PAYLOAD","BSTAR":"-0.00001165300000","SITE":"AFETR","TIME_SYSTEM":"UTC","OBJECT_NAME":"STARLINK-2486","GP_ID":"190622262","LAUNCH_DATE":"2021-04-07","MEAN_MOTION_DDOT":"0.0000000000000","ECCENTRICITY":"0.00019100","ELEMENT_SET_NO":"999","EPHEMERIS_TYPE":"0","TLE_LINE2":"2 48143  53.0523 281.6216 0001910  69.5945 290.5248 15.03958193 37784","REF_FRAME":"TEME","APOAPSIS":"556.032","CENTER_NAME":"EARTH","PERIAPSIS":"553.383","INCLINATION":"53.0523","OBJECT_ID":"2021-027BD","MEAN_MOTION_DOT":"-0.00000438","REV_AT_EPOCH":"3778","TLE_LINE1":"1 48143U 21027BD  21331.88414162 -.00000438  00000-0 -11653-4 0  9993","MEAN_ELEMENT_THEORY":"SGP4","RCS_SIZE":"LARGE","PERIOD":"95.747","ARG_OF_PERICENTER":"69.5945","EPOCH":"2021-11-27T21:13:09.835968"},{"PERIOD":"95.592","ARG_OF_PERICENTER":"62.2765","EPOCH":"2021-11-27T17:01:47.076096","MEAN_MOTION_DOT":"0.00001328","REV_AT_EPOCH":"3711","TLE_LINE1":"1 48144U 21027BE  21331.70957264  .00001328  00000-0  10805-3 0  9994","MEAN_ELEMENT_THEORY":"SGP4","RCS_SIZE":"LARGE","INCLINATION":"53.0553","OBJECT_ID":"2021-027BE","EPHEMERIS_TYPE":"0","TLE_LINE2":"2 48144  53.0553 328.1146 0001672  62.2765 297.8394 15.06397144 37117","APOAPSIS":"548.380","REF_FRAME":"TEME","CENTER_NAME":"EARTH","PERIAPSIS":"546.064","LAUNCH_DATE":"2021-04-07","GP_ID":"190622998","MEAN_MOTION_DDOT":"0.0000000000000","ECCENTRICITY":"0.00016720","ELEMENT_SET_NO":"999","OBJECT_TYPE":"PAYLOAD","BSTAR":"0.00010805000000","SITE":"AFETR","TIME_SYSTEM":"UTC","OBJECT_NAME":"STARLINK-2487","NORAD_CAT_ID":"48144","FILE":"3225675","RA_OF_ASC_NODE":"328.1146","COUNTRY_CODE":"US","DECAY_DATE":null,"MEAN_ANOMALY":"297.8394","MEAN_MOTION":"15.06397144","CLASSIFICATION_TYPE":"U","SEMIMAJOR_AXIS":"6925.357"},{"CENTER_NAME":"EARTH","PERIAPSIS":"546.049","APOAPSIS":"548.362","REF_FRAME":"TEME","EPHEMERIS_TYPE":"0","TLE_LINE2":"2 48145  53.0558 328.0841 0001670  62.6291 297.4867 15.06402635 37124","OBJECT_ID":"2021-027BF","INCLINATION":"53.0558","RCS_SIZE":"LARGE","TLE_LINE1":"1 48145U 21027BF  21331.71325213  .00000545  00000-0  55477-4 0  9994","MEAN_ELEMENT_THEORY":"SGP4","REV_AT_EPOCH":"3712","MEAN_MOTION_DOT":"0.00000545","ARG_OF_PERICENTER":"62.6291","PERIOD":"95.592","EPOCH":"2021-11-27T17:07:04.984032","CLASSIFICATION_TYPE":"U","SEMIMAJOR_AXIS":"6925.340","MEAN_ANOMALY":"297.4867","MEAN_MOTION":"15.06402635","DECAY_DATE":null,"COUNTRY_CODE":"US","NORAD_CAT_ID":"48145","FILE":"3225675","RA_OF_ASC_NODE":"328.0841","TIME_SYSTEM":"UTC","OBJECT_NAME":"STARLINK-2488","SITE":"AFETR","OBJECT_TYPE":"PAYLOAD","BSTAR":"0.00005547700000","ELEMENT_SET_NO":"999","ECCENTRICITY":"0.00016700","GP_ID":"190623756","LAUNCH_DATE":"2021-04-07","MEAN_MOTION_DDOT":"0.0000000000000"}];
